NORAD_CAT_ID,OBJECT_NAME,OBJECT_TYPE,EPOCH,MEAN_MOTION,ECCENTRICITY,INCLINATION,RA_OF_ASC_NODE,ARG_OF_PERICENTER,MEAN_ANOMALY,BSTAR,MEAN_MOTION_DOT,MEAN_MOTION_DDOT,TLE_LINE0,TLE_LINE1,TLE_LINE2,SEMIMAJOR_AXIS,PERIOD,APOGEE,PERIGEE,DECAYED
52838.0,STARLINK-4092,PAYLOAD,2023-06-17 05:37:38,15.08857083,0.0001034,53.2143,187.3731,76.157,283.9537,0.00032578,4.903e-05,0.0,0 STARLINK-4092,1 52838U 22062J   23168.23447696  .00004903  00000-0  32578-3 0  9993,2 52838  53.2143 187.3731 0001034  76.1570 283.9537 15.08857083 55844,6917.828,95.436,540.408,538.978,0.0
52838.0,STARLINK-4092,PAYLOAD,2023-06-17 08:48:24,15.08858542,0.0001033,53.2143,186.7784,76.0304,284.0803,0.00032384,4.872e-05,0.0,0 STARLINK-4092,1 52838U 22062J   23168.36695520  .00004872  00000-0  32384-3 0  9998,2 52838  53.2143 186.7784 0001033  76.0304 284.0803 15.08858542 55375,6917.824,95.436,540.403,538.974,0.0
52838.0,STARLINK-4092,PAYLOAD,2023-06-17 18:20:43,15.08855355,0.0001036,53.2142,184.9942,76.9287,283.1821,0.00016863,2.398e-05,0.0,0 STARLINK-4092,1 52838U 22062J   23168.76439238  .00002398  00000-0  16863-3 0  9999,2 52838  53.2142 184.9942 0001036  76.9287 283.1821 15.08855355 55438,6917.833,95.437,540.415,538.982,0.0
52838.0,STARLINK-4092,PAYLOAD,2023-06-18 00:42:15,15.0885305,0.0001071,53.2141,183.805,77.4463,282.6649,8.3785e-05,1.046e-05,0.0,0 STARLINK-4092,1 52838U 22062J   23169.02935091  .00001046  00000-0  83785-4 0  9994,2 52838  53.2141 183.8050 0001071  77.4463 282.6649 15.08853050 55966,6917.841,95.437,540.446,538.965,0.0
52838.0,STARLINK-4092,PAYLOAD,2023-06-18 07:03:48,15.08849727,0.0001069,53.2144,182.6152,76.932,283.1792,3.9075e-05,3.34e-06,0.0,0 STARLINK-4092,1 52838U 22062J   23169.29431105  .00000334  00000-0  39075-4 0  9992,2 52838  53.2144 182.6152 0001069  76.9320 283.1792 15.08849727 55514,6917.851,95.437,540.455,538.976,0.0
52838.0,STARLINK-4092,PAYLOAD,2023-06-18 18:11:30,15.08852033,0.0001095,53.2144,180.5337,77.1888,282.9226,7.4426e-05,8.97e-06,0.0,0 STARLINK-4092,1 52838U 22062J   23169.75798703  .00000897  00000-0  74426-4 0  9996,2 52838  53.2144 180.5337 0001095  77.1888 282.9226 15.08852033 55587,6917.844,95.437,540.466,538.951,0.0
52838.0,STARLINK-4092,PAYLOAD,2023-06-19 10:05:20,15.08857993,0.0001128,53.215,177.5596,78.8291,281.2827,0.00012884,1.764e-05,0.0,0 STARLINK-4092,1 52838U 22062J   23170.42037943  .00001764  00000-0  12884-3 0  9997,2 52838  53.2150 177.5596 0001128  78.8291 281.2827 15.08857993 56175,6917.825,95.436,540.471,538.91,0.0
52838.0,STARLINK-4092,PAYLOAD,2023-06-19 18:02:16,15.0885023,0.0001082,53.2154,176.0732,84.3431,275.7684,3.6027e-05,2.86e-06,0.0,0 STARLINK-4092,1 52838U 22062J   23170.75158149  .00000286  00000-0  36027-4 0  9999,2 52838  53.2154 176.0732 0001082  84.3431 275.7684 15.08850230 56224,6917.849,95.437,540.463,538.966,0.0
52838.0,STARLINK-4092,PAYLOAD,2023-06-19 22:48:26,15.0883641,0.0001152,53.2162,175.1809,82.3016,277.8107,-1.8696e-05,-5.85e-06,0.0,0 STARLINK-4092,1 52838U 22062J   23170.95031194 -.00000585  00000-0 -18696-4 0  9997,2 52838  53.2162 175.1809 0001152  82.3016 277.8107 15.08836410 56253,6917.891,95.438,540.553,538.959,0.0
52838.0,STARLINK-4092,PAYLOAD,2023-06-20 06:45:22,15.08839133,0.0001106,53.2161,173.6933,86.0398,274.072,1.217e-05,-9.4e-07,0.0,0 STARLINK-4092,1 52838U 22062J   23171.28150886 -.00000094  00000-0  12170-4 0  9999,2 52838  53.2161 173.6933 0001106  86.0398 274.0720 15.08839133 55812,6917.883,95.438,540.513,538.983,0.0
52838.0,STARLINK-4092,PAYLOAD,2023-06-21 00:14:36,15.08845657,0.0001237,53.2142,170.4212,94.6239,265.4894,-1.4683e-05,-5.22e-06,0.0,0 STARLINK-4092,1 52838U 22062J   23172.01014436 -.00000522  00000-0 -14683-4 0  9999,2 52838  53.2142 170.4212 0001237  94.6239 265.4894 15.08845657 56411,6917.863,95.437,540.584,538.872,0.0
52838.0,STARLINK-4092,PAYLOAD,2023-06-21 09:46:55,15.0884371,0.0001178,53.2154,168.6378,93.9013,266.2114,-1.3664e-05,-5.05e-06,0.0,0 STARLINK-4092,1 52838U 22062J   23172.40758429 -.00000505  00000-0 -13664-4 0  9998,2 52838  53.2154 168.6378 0001178  93.9013 266.2114 15.08843710 55985,6917.869,95.437,540.549,538.919,0.0
52838.0,STARLINK-4092,PAYLOAD,2023-06-22 00:05:24,15.08831384,0.0001146,53.2157,165.9617,90.8183,269.294,6.403e-05,7.31e-06,0.0,0 STARLINK-4092,1 52838U 22062J   23173.00375109  .00000731  00000-0  64030-4 0  9997,2 52838  53.2157 165.9617 0001146  90.8183 269.2940 15.08831384 56562,6917.907,95.438,540.565,538.979,0.0
52838.0,STARLINK-4092,PAYLOAD,2023-06-23 07:53:06,15.08841677,0.0001133,53.2159,160.0158,91.6391,268.4731,7.8366e-05,9.6e-06,0.0,0 STARLINK-4092,1 52838U 22062J   23174.32854871  .00000960  00000-0  78366-4 0  9992,2 52838  53.2159 160.0158 0001133  91.6391 268.4731 15.08841677 56763,6917.875,95.437,540.524,538.956,0.0
52838.0,STARLINK-4092,PAYLOAD,2023-06-23 23:46:58,15.08834748,0.0001121,53.216,157.042,91.6103,268.5017,6.6387e-05,7.69e-06,0.0,0 STARLINK-4092,1 52838U 22062J   23174.99095502  .00000769  00000-0  66387-4 0  9990,2 52838  53.2160 157.0420 0001121  91.6103 268.5017 15.08834748 56861,6917.896,95.438,540.537,538.986,0.0
52838.0,STARLINK-4092,PAYLOAD,2023-06-25 02:48:31,15.08840968,0.0001108,53.2161,151.9868,96.9627,263.1492,7.3797e-05,8.87e-06,0.0,0 STARLINK-4092,1 52838U 22062J   23176.11703321  .00000887  00000-0  73797-4 0  9995,2 52838  53.2161 151.9868 0001108  96.9627 263.1492 15.08840968 57034,6917.877,95.437,540.509,538.976,0.0
52838.0,STARLINK-4092,PAYLOAD,2023-06-26 02:39:19,15.08834818,0.0001054,53.2157,147.5246,91.293,268.8183,4.3751e-05,4.09e-06,0.0,0 STARLINK-4092,1 52838U 22062J   23177.11063899  .00000409  00000-0  43751-4 0  9992,2 52838  53.2157 147.5246 0001054  91.2930 268.8183 15.08834818 57187,6917.896,95.438,540.49,539.032,0.0
52838.0,STARLINK-4092,PAYLOAD,2023-06-27 07:16:15,15.0884196,0.0001094,53.2163,142.1734,97.4817,262.63,9.7443e-05,1.263e-05,0.0,0 STARLINK-4092,1 52838U 22062J   23178.30295412  .00001263  00000-0  97443-4 0  9998,2 52838  53.2163 142.1734 0001094  97.4817 262.6300 15.08841960 57362,6917.874,95.437,540.496,538.983,0.0
52838.0,STARLINK-4092,PAYLOAD,2023-06-28 07:07:02,15.08840622,0.0001159,53.2171,137.7121,93.8409,266.2715,5.8101e-05,6.37e-06,0.0,0 STARLINK-4092,1 52838U 22062J   23179.29655630  .00000637  00000-0  58101-4 0  9991,2 52838  53.2171 137.7121 0001159  93.8409 266.2715 15.08840622 57511,6917.878,95.438,540.545,538.942,0.0
52838.0,STARLINK-4092,PAYLOAD,2023-06-29 03:47:03,15.08829934,0.0001246,53.2175,133.8453,101.1269,258.9864,7.8081e-05,9.55e-06,0.0,0 STARLINK-4092,1 52838U 22062J   23180.15768321  .00000955  00000-0  78081-4 0  9992,2 52838  53.2175 133.8453 0001246 101.1269 258.9864 15.08829934 57644,6917.911,95.438,540.638,538.914,0.0
52838.0,STARLINK-4092,PAYLOAD,2023-06-30 13:10:09,15.08839049,0.0001114,53.2169,127.6036,86.0724,274.0396,3.7421e-05,3.08e-06,0.0,0 STARLINK-4092,1 52838U 22062J   23181.54872028  .00000308  00000-0  37421-4 0  9991,2 52838  53.2169 127.6036 0001114  86.0724 274.0396 15.08839049 57856,6917.883,95.438,540.519,538.978,0.0
52838.0,STARLINK-4092,PAYLOAD,2023-07-01 01:53:15,15.08829449,0.0001223,53.2174,125.2254,87.6057,272.5075,-1.7777e-05,-5.71e-06,0.0,0 STARLINK-4092,1 52838U 22062J   23182.07865077 -.00000571  00000-0 -17777-4 0  9992,2 52838  53.2174 125.2254 0001223  87.6057 272.5075 15.08829449 57934,6917.913,95.438,540.624,538.932,0.0
52838.0,STARLINK-4092,PAYLOAD,2023-07-02 01:44:01,15.08844005,0.0001284,53.218,120.7659,91.7078,268.4061,1.3446e-05,-7.4e-07,0.0,0 STARLINK-4092,1 52838U 22062J   23183.07224342 -.00000074  00000-0  13446-4 0  9993,2 52838  53.2180 120.7659 0001284  91.7078 268.4061 15.08844005 58087,6917.868,95.437,540.621,538.845,0.0
52838.0,STARLINK-4092,PAYLOAD,2023-07-03 03:10:11,15.08848438,0.0001223,53.2174,116.007,85.2923,274.8209,5.5319e-05,5.93e-06,0.0,0 STARLINK-4092,1 52838U 22062J   23184.13207927  .00000593  00000-0  55319-4 0  9991,2 52838  53.2174 116.0070 0001223  85.2923 274.8209 15.08848438 58242,6917.855,95.437,540.566,538.874,0.0
52838.0,STARLINK-4092,PAYLOAD,2023-07-03 12:42:31,15.08836402,0.0001279,53.217,114.2211,79.4693,280.6444,3.8142e-05,3.19e-06,0.0,0 STARLINK-4092,1 52838U 22062J   23184.52952756  .00000319  00000-0  38142-4 0  9992,2 52838  53.2170 114.2211 0001279  79.4693 280.6444 15.08836402 58306,6917.891,95.438,540.641,538.872,0.0
52838.0,STARLINK-4092,PAYLOAD,2023-07-05 01:16:22,15.08831201,0.000127,53.2175,107.3824,94.4742,265.6395,0.00033899,5.11e-05,0.0,0 STARLINK-4092,1 52838U 22062J   23186.05303874  .00005110  00000-0  33899-3 0  9990,2 52838  53.2175 107.3824 0001270  94.4742 265.6395 15.08831201 58532,6917.907,95.438,540.651,538.894,0.0
52838.0,STARLINK-4092,PAYLOAD,2023-07-05 04:27:09,15.08800989,0.0001555,53.2176,106.7879,97.9105,262.2064,0.00077317,0.00012025,0.0,0 STARLINK-4092,1 52838U 22062J   23186.18552417  .00012025  00000-0  77317-3 0  9999,2 52838  53.2176 106.7879 0001555  97.9105 262.2064 15.08800989 58550,6918.0,95.44,540.94,538.789,0.0
52838.0,STARLINK-4092,PAYLOAD,2023-07-05 12:24:05,15.08838971,0.0001151,53.2181,105.2997,88.3651,271.7473,-6.0055e-05,-1.243e-05,0.0,0 STARLINK-4092,1 52838U 22062J   23186.51672658 -.00001243  00000-0 -60055-4 0  9990,2 52838  53.2181 105.2997 0001151  88.3651 271.7473 15.08838971 58600,6917.884,95.438,540.545,538.952,0.0
52838.0,STARLINK-4092,PAYLOAD,2023-07-06 01:07:10,15.08831374,0.0001234,53.2173,102.9221,86.8003,273.3131,2.7507e-05,1.5e-06,0.0,0 STARLINK-4092,1 52838U 22062J   23187.04665185  .00000150  00000-0  27507-4 0  9995,2 52838  53.2173 102.9221 0001234  86.8003 273.3131 15.08831374 58688,6917.907,95.438,540.625,538.918,0.0
52838.0,STARLINK-4092,PAYLOAD,2023-07-06 18:36:24,15.08843363,0.0001255,53.2178,99.6514,90.0641,270.0495,-2.3414e-05,-6.61e-06,0.0,0 STARLINK-4092,1 52838U 22062J   23187.77528784 -.00000661  00000-0 -23414-4 0  9990,2 52838  53.2178  99.6514 0001255  90.0641 270.0495 15.08843363 58798,6917.87,95.437,540.603,538.867,0.0
